CCSDS_OMM_VERS = 2.0
CREATION_DATE  = 
ORIGINATOR     = 

OBJECT_NAME    = ISS (ZARYA)
OBJECT_ID      = 1998-067A
CENTER_NAME    = EARTH
REF_FRAME      = TEME
TIME_SYSTEM    = UTC
MEAN_ELEMENT_THEORY = SGP/SGP4

EPOCH          = 2026-01-07T20:31:08.770368
MEAN_MOTION    = 15.49160932
ECCENTRICITY   = .0007624
INCLINATION    = 51.6332
RA_OF_ASC_NODE = 13.1773
ARG_OF_PERICENTER = 352.7234
MEAN_ANOMALY   = 7.3643

EPHEMERIS_TYPE = 0
CLASSIFICATION_TYPE = U
NORAD_CAT_ID   = 25544
ELEMENT_SET_NO = 999
REV_AT_EPOCH   = 54690
BSTAR          = .15591E-3
MEAN_MOTION_DOT = .8201E-4
MEAN_MOTION_DDOT = 0

CCSDS_OMM_VERS = 2.0
CREATION_DATE  = 
ORIGINATOR     = 

OBJECT_NAME    = CSS (TIANHE)
OBJECT_ID      = 2021-035A
CENTER_NAME    = EARTH
REF_FRAME      = TEME
TIME_SYSTEM    = UTC
MEAN_ELEMENT_THEORY = SGP/SGP4

EPOCH          = 2026-01-08T00:44:47.205888
MEAN_MOTION    = 15.60269105
ECCENTRICITY   = .0011174
INCLINATION    = 41.4651
RA_OF_ASC_NODE = 216.9599
ARG_OF_PERICENTER = 241.9537
MEAN_ANOMALY   = 118.0172

EPHEMERIS_TYPE = 0
CLASSIFICATION_TYPE = U
NORAD_CAT_ID   = 48274
ELEMENT_SET_NO = 999
REV_AT_EPOCH   = 26813
BSTAR          = .13156E-3
MEAN_MOTION_DOT = .10759E-3
MEAN_MOTION_DDOT = 0

CCSDS_OMM_VERS = 2.0
CREATION_DATE  = 
ORIGINATOR     = 

OBJECT_NAME    = ISS (NAUKA)
OBJECT_ID      = 2021-066A
CENTER_NAME    = EARTH
REF_FRAME      = TEME
TIME_SYSTEM    = UTC
MEAN_ELEMENT_THEORY = SGP/SGP4

EPOCH          = 2026-01-07T20:31:08.770368
MEAN_MOTION    = 15.49160932
ECCENTRICITY   = .00076245
INCLINATION    = 51.6332
RA_OF_ASC_NODE = 13.1773
ARG_OF_PERICENTER = 352.7234
MEAN_ANOMALY   = 7.3643

EPHEMERIS_TYPE = 0
CLASSIFICATION_TYPE = U
NORAD_CAT_ID   = 49044
ELEMENT_SET_NO = 999
REV_AT_EPOCH   = 23044
BSTAR          = .15591257E-3
MEAN_MOTION_DOT = .8201E-4
MEAN_MOTION_DDOT = 0

CCSDS_OMM_VERS = 2.0
CREATION_DATE  = 
ORIGINATOR     = 

OBJECT_NAME    = FREGAT DEB
OBJECT_ID      = 2011-037PF
CENTER_NAME    = EARTH
REF_FRAME      = TEME
TIME_SYSTEM    = UTC
MEAN_ELEMENT_THEORY = SGP/SGP4

EPOCH          = 2026-01-06T23:45:34.891488
MEAN_MOTION    = 12.35202198
ECCENTRICITY   = .08793785
INCLINATION    = 51.6539
RA_OF_ASC_NODE = 124.7772
ARG_OF_PERICENTER = 279.3409
MEAN_ANOMALY   = 70.9169

EPHEMERIS_TYPE = 0
CLASSIFICATION_TYPE = U
NORAD_CAT_ID   = 49271
ELEMENT_SET_NO = 999
REV_AT_EPOCH   = 20505
BSTAR          = .62724406E-1
MEAN_MOTION_DOT = .3E-3
MEAN_MOTION_DDOT = 0

CCSDS_OMM_VERS = 2.0
CREATION_DATE  = 
ORIGINATOR     = 

OBJECT_NAME    = CSS (WENTIAN)
OBJECT_ID      = 2022-085A
CENTER_NAME    = EARTH
REF_FRAME      = TEME
TIME_SYSTEM    = UTC
MEAN_ELEMENT_THEORY = SGP/SGP4

EPOCH          = 2026-01-07T23:12:36.935424
MEAN_MOTION    = 15.60266689
ECCENTRICITY   = .00111719
INCLINATION    = 41.4652
RA_OF_ASC_NODE = 217.3492
ARG_OF_PERICENTER = 241.5803
MEAN_ANOMALY   = 118.3910

EPHEMERIS_TYPE = 0
CLASSIFICATION_TYPE = U
NORAD_CAT_ID   = 53239
ELEMENT_SET_NO = 999
REV_AT_EPOCH   = 17384
BSTAR          = .12466572E-3
MEAN_MOTION_DOT = .10176E-3
MEAN_MOTION_DDOT = 0

CCSDS_OMM_VERS = 2.0
CREATION_DATE  = 
ORIGINATOR     = 

OBJECT_NAME    = CSS (MENGTIAN)
OBJECT_ID      = 2022-143A
CENTER_NAME    = EARTH
REF_FRAME      = TEME
TIME_SYSTEM    = UTC
MEAN_ELEMENT_THEORY = SGP/SGP4

EPOCH          = 2026-01-07T23:12:36.935424
MEAN_MOTION    = 15.60266689
ECCENTRICITY   = .00111719
INCLINATION    = 41.4652
RA_OF_ASC_NODE = 217.3492
ARG_OF_PERICENTER = 241.5803
MEAN_ANOMALY   = 118.3910

EPHEMERIS_TYPE = 0
CLASSIFICATION_TYPE = U
NORAD_CAT_ID   = 54216
ELEMENT_SET_NO = 999
REV_AT_EPOCH   = 15864
BSTAR          = .12466572E-3
MEAN_MOTION_DOT = .10176E-3
MEAN_MOTION_DDOT = 0

CCSDS_OMM_VERS = 2.0
CREATION_DATE  = 
ORIGINATOR     = 

OBJECT_NAME    = SHENZHOU-20 (SZ-20)
OBJECT_ID      = 2025-082A
CENTER_NAME    = EARTH
REF_FRAME      = TEME
TIME_SYSTEM    = UTC
MEAN_ELEMENT_THEORY = SGP/SGP4

EPOCH          = 2026-01-07T23:12:36.935424
MEAN_MOTION    = 15.60266689
ECCENTRICITY   = .00111719
INCLINATION    = 41.4652
RA_OF_ASC_NODE = 217.3492
ARG_OF_PERICENTER = 241.5803
MEAN_ANOMALY   = 118.3910

EPHEMERIS_TYPE = 0
CLASSIFICATION_TYPE = U
NORAD_CAT_ID   = 63632
ELEMENT_SET_NO = 999
REV_AT_EPOCH   = 25530
BSTAR          = .12466572E-3
MEAN_MOTION_DOT = .10176E-3
MEAN_MOTION_DDOT = 0

CCSDS_OMM_VERS = 2.0
CREATION_DATE  = 
ORIGINATOR     = 

OBJECT_NAME    = PROGRESS-MS 31
OBJECT_ID      = 2025-146A
CENTER_NAME    = EARTH
REF_FRAME      = TEME
TIME_SYSTEM    = UTC
MEAN_ELEMENT_THEORY = SGP/SGP4

EPOCH          = 2026-01-07T20:31:08.770368
MEAN_MOTION    = 15.49160932
ECCENTRICITY   = .00076245
INCLINATION    = 51.6332
RA_OF_ASC_NODE = 13.1773
ARG_OF_PERICENTER = 352.7234
MEAN_ANOMALY   = 7.3643

EPHEMERIS_TYPE = 0
CLASSIFICATION_TYPE = U
NORAD_CAT_ID   = 64751
ELEMENT_SET_NO = 999
REV_AT_EPOCH   = 675
BSTAR          = .15591257E-3
MEAN_MOTION_DOT = .8201E-4
MEAN_MOTION_DDOT = 0

CCSDS_OMM_VERS = 2.0
CREATION_DATE  = 
ORIGINATOR     = 

OBJECT_NAME    = TIANZHOU-9
OBJECT_ID      = 2025-149A
CENTER_NAME    = EARTH
REF_FRAME      = TEME
TIME_SYSTEM    = UTC
MEAN_ELEMENT_THEORY = SGP/SGP4

EPOCH          = 2026-01-07T23:12:36.935424
MEAN_MOTION    = 15.60266689
ECCENTRICITY   = .00111719
INCLINATION    = 41.4652
RA_OF_ASC_NODE = 217.3492
ARG_OF_PERICENTER = 241.5803
MEAN_ANOMALY   = 118.3910

EPHEMERIS_TYPE = 0
CLASSIFICATION_TYPE = U
NORAD_CAT_ID   = 64786
ELEMENT_SET_NO = 999
REV_AT_EPOCH   = 25530
BSTAR          = .12466572E-3
MEAN_MOTION_DOT = .10176E-3
MEAN_MOTION_DDOT = 0

CCSDS_OMM_VERS = 2.0
CREATION_DATE  = 
ORIGINATOR     = 

OBJECT_NAME    = CREW DRAGON 11
OBJECT_ID      = 2025-166A
CENTER_NAME    = EARTH
REF_FRAME      = TEME
TIME_SYSTEM    = UTC
MEAN_ELEMENT_THEORY = SGP/SGP4

EPOCH          = 2026-01-07T20:31:08.770368
MEAN_MOTION    = 15.49160932
ECCENTRICITY   = .00076245
INCLINATION    = 51.6332
RA_OF_ASC_NODE = 13.1773
ARG_OF_PERICENTER = 352.7234
MEAN_ANOMALY   = 7.3643

EPHEMERIS_TYPE = 0
CLASSIFICATION_TYPE = U
NORAD_CAT_ID   = 65077
ELEMENT_SET_NO = 999
REV_AT_EPOCH   = 214
BSTAR          = .15591257E-3
MEAN_MOTION_DOT = .8201E-4
MEAN_MOTION_DDOT = 0

CCSDS_OMM_VERS = 2.0
CREATION_DATE  = 
ORIGINATOR     = 

OBJECT_NAME    = DRAGON CRS-33
OBJECT_ID      = 2025-186A
CENTER_NAME    = EARTH
REF_FRAME      = TEME
TIME_SYSTEM    = UTC
MEAN_ELEMENT_THEORY = SGP/SGP4

EPOCH          = 2026-01-07T20:31:08.770368
MEAN_MOTION    = 15.49160932
ECCENTRICITY   = .00076245
INCLINATION    = 51.6332
RA_OF_ASC_NODE = 13.1773
ARG_OF_PERICENTER = 352.7234
MEAN_ANOMALY   = 7.3643

EPHEMERIS_TYPE = 0
CLASSIFICATION_TYPE = U
NORAD_CAT_ID   = 65304
ELEMENT_SET_NO = 999
REV_AT_EPOCH   = 11
BSTAR          = .15591257E-3
MEAN_MOTION_DOT = .8201E-4
MEAN_MOTION_DDOT = 0

CCSDS_OMM_VERS = 2.0
CREATION_DATE  = 
ORIGINATOR     = 

OBJECT_NAME    = PROGRESS-MS 32
OBJECT_ID      = 2025-204A
CENTER_NAME    = EARTH
REF_FRAME      = TEME
TIME_SYSTEM    = UTC
MEAN_ELEMENT_THEORY = SGP/SGP4

EPOCH          = 2026-01-07T20:31:08.770368
MEAN_MOTION    = 15.49160932
ECCENTRICITY   = .00076245
INCLINATION    = 51.6332
RA_OF_ASC_NODE = 13.1773
ARG_OF_PERICENTER = 352.7234
MEAN_ANOMALY   = 7.3643

EPHEMERIS_TYPE = 0
CLASSIFICATION_TYPE = U
NORAD_CAT_ID   = 65586
ELEMENT_SET_NO = 999
REV_AT_EPOCH   = 27
BSTAR          = .15591257E-3
MEAN_MOTION_DOT = .8201E-4
MEAN_MOTION_DDOT = 0

